{
  "type": "FeatureCollection",
  "features": [
    {
      "type": "Feature",
      "properties": {
        "norad_id": 41866,
        "name": "GOES 16",
        "group": "weather",
        "lat": -0.004844279680508234,
        "lon": -93.90499158482302,
        "alt_km": 35771.839285742215,
        "timestamp": "2025-12-08T19:31:48.474546+00:00",
        "meta_object_name": "GOES 16",
        "meta_object_id": "2016-071A",
        "meta_epoch": "2025-12-08T05:58:23.735712",
        "meta_mean_motion": 1.00270815,
        "meta_eccentricity": 0.00034436,
        "meta_inclination": 0.0673,
        "meta_ra_of_asc_node": 103.7901,
        "meta_arg_of_pericenter": 156.9205,
        "meta_mean_anomaly": 161.4769,
        "meta_ephemeris_type": 0,
        "meta_classification_type": "U",
        "meta_norad_cat_id": 41866,
        "meta_element_set_no": 999,
        "meta_rev_at_epoch": 3318,
        "meta_bstar": 0,
        "meta_mean_motion_dot": -8.8e-07,
        "meta_mean_motion_ddot": 0,
        "tle_line1": "1 41866U 16071A   25342.24888583 -.00000088  00000+0  00000+0 0  9997",
        "tle_line2": "2 41866   0.0673 103.7901 0003443 156.9205 161.4769  1.00270815 33189"
      },
      "geometry": {
        "type": "Point",
        "coordinates": [
          -93.90499158482302,
          -0.004844279680508234
        ]
      }
    },
    {
      "type": "Feature",
      "properties": {
        "norad_id": 41882,
        "name": "FENGYUN 4A",
        "group": "weather",
        "lat": 1.4628466463932681,
        "lon": 134.52869751231614,
        "alt_km": 35785.256993523544,
        "timestamp": "2025-12-08T19:31:48.474557+00:00",
        "meta_object_name": "FENGYUN 4A",
        "meta_object_id": "2016-077A",
        "meta_epoch": "2025-12-08T07:20:43.209024",
        "meta_mean_motion": 1.00275623,
        "meta_eccentricity": 0.00049566,
        "meta_inclination": 1.8378,
        "meta_ra_of_asc_node": 82.4352,
        "meta_arg_of_pericenter": 142.8744,
        "meta_mean_anomaly": 86.0131,
        "meta_ephemeris_type": 0,
        "meta_classification_type": "U",
        "meta_norad_cat_id": 41882,
        "meta_element_set_no": 999,
        "meta_rev_at_epoch": 3301,
        "meta_bstar": 0,
        "meta_mean_motion_dot": -3.54e-06,
        "meta_mean_motion_ddot": 0,
        "tle_line1": "1 41882U 16077A   25342.30605566 -.00000354  00000+0  00000+0 0  9992",
        "tle_line2": "2 41882   1.8378  82.4352 0004956 142.8744  86.0131  1.00275623 33012"
      },
      "geometry": {
        "type": "Point",
        "coordinates": [
          134.52869751231614,
          1.4628466463932681
        ]
      }
    },
    {
      "type": "Feature",
      "properties": {
        "norad_id": 41884,
        "name": "CYGFM05",
        "group": "weather",
        "lat": 27.324602605262633,
        "lon": 120.4635177505475,
        "alt_km": 419.4291714315741,
        "timestamp": "2025-12-08T19:31:48.474568+00:00",
        "meta_object_name": "CYGFM05",
        "meta_object_id": "2016-078A",
        "meta_epoch": "2025-12-07T23:10:19.179264",
        "meta_mean_motion": 15.47374396,
        "meta_eccentricity": 0.00095772,
        "meta_inclination": 34.9599,
        "meta_ra_of_asc_node": 78.3112,
        "meta_arg_of_pericenter": 138.5672,
        "meta_mean_anomaly": 221.5777,
        "meta_ephemeris_type": 0,
        "meta_classification_type": "U",
        "meta_norad_cat_id": 41884,
        "meta_element_set_no": 999,
        "meta_rev_at_epoch": 49902,
        "meta_bstar": 0.00046085442,
        "meta_mean_motion_dot": 0.00024362,
        "meta_mean_motion_ddot": 0,
        "tle_line1": "1 41884U 16078A   25341.96549976  .00024362  00000+0  46085-3 0  9999",
        "tle_line2": "2 41884  34.9599  78.3112 0009577 138.5672 221.5777 15.47374396499022"
      },
      "geometry": {
        "type": "Point",
        "coordinates": [
          120.4635177505475,
          27.324602605262633
        ]
      }
    },
    {
      "type": "Feature",
      "properties": {
        "norad_id": 41885,
        "name": "CYGFM04",
        "group": "weather",
        "lat": -33.46590420734332,
        "lon": -61.07530754771766,
        "alt_km": 417.23434123614607,
        "timestamp": "2025-12-08T19:31:48.474577+00:00",
        "meta_object_name": "CYGFM04",
        "meta_object_id": "2016-078B",
        "meta_epoch": "2025-12-08T06:04:23.043936",
        "meta_mean_motion": 15.50078368,
        "meta_eccentricity": 0.00088902,
        "meta_inclination": 34.9352,
        "meta_ra_of_asc_node": 51.3392,
        "meta_arg_of_pericenter": 170.5496,
        "meta_mean_anomaly": 189.5394,
        "meta_ephemeris_type": 0,
        "meta_classification_type": "U",
        "meta_norad_cat_id": 41885,
        "meta_element_set_no": 999,
        "meta_rev_at_epoch": 49924,
        "meta_bstar": 0.00046308863,
        "meta_mean_motion_dot": 0.00026931,
        "meta_mean_motion_ddot": 0,
        "tle_line1": "1 41885U 16078B   25342.25304449  .00026931  00000+0  46309-3 0  9990",
        "tle_line2": "2 41885  34.9352  51.3392 0008890 170.5496 189.5394 15.50078368499244"
      },
      "geometry": {
        "type": "Point",
        "coordinates": [
          -61.07530754771766,
          -33.46590420734332
        ]
      }
    },
    {
      "type": "Feature",
      "properties": {
        "norad_id": 41886,
        "name": "CYGFM02",
        "group": "weather",
        "lat": -32.08024575056025,
        "lon": -70.10472604464627,
        "alt_km": 412.2686039375667,
        "timestamp": "2025-12-08T19:31:48.474587+00:00",
        "meta_object_name": "CYGFM02",
        "meta_object_id": "2016-078C",
        "meta_epoch": "2025-12-08T06:06:44.572320",
        "meta_mean_motion": 15.51438875,
        "meta_eccentricity": 0.0010617,
        "meta_inclination": 34.944,
        "meta_ra_of_asc_node": 49.712,
        "meta_arg_of_pericenter": 169.7081,
        "meta_mean_anomaly": 190.386,
        "meta_ephemeris_type": 0,
        "meta_classification_type": "U",
        "meta_norad_cat_id": 41886,
        "meta_element_set_no": 999,
        "meta_rev_at_epoch": 49937,
        "meta_bstar": 0.00046558809,
        "meta_mean_motion_dot": 0.00028452,
        "meta_mean_motion_ddot": 0,
        "tle_line1": "1 41886U 16078C   25342.25468255  .00028452  00000+0  46559-3 0  9994",
        "tle_line2": "2 41886  34.9440  49.7120 0010617 169.7081 190.3860 15.51438875499379"
      },
      "geometry": {
        "type": "Point",
        "coordinates": [
          -70.10472604464627,
          -32.08024575056025
        ]
      }
    },
    {
      "type": "Feature",
      "properties": {
        "norad_id": 41887,
        "name": "CYGFM01",
        "group": "weather",
        "lat": 34.921259071020515,
        "lon": 164.3767946173324,
        "alt_km": 412.05695067744455,
        "timestamp": "2025-12-08T19:31:48.474596+00:00",
        "meta_object_name": "CYGFM01",
        "meta_object_id": "2016-078D",
        "meta_epoch": "2025-12-07T23:01:28.894080",
        "meta_mean_motion": 15.47944929,
        "meta_eccentricity": 0.00091549,
        "meta_inclination": 34.9429,
        "meta_ra_of_asc_node": 80.7346,
        "meta_arg_of_pericenter": 129.9517,
        "meta_mean_anomaly": 230.201,
        "meta_ephemeris_type": 0,
        "meta_classification_type": "U",
        "meta_norad_cat_id": 41887,
        "meta_element_set_no": 999,
        "meta_rev_at_epoch": 49896,
        "meta_bstar": 0.00045831873,
        "meta_mean_motion_dot": 0.00024714,
        "meta_mean_motion_ddot": 0,
        "tle_line1": "1 41887U 16078D   25341.95936220  .00024714  00000+0  45832-3 0  9993",
        "tle_line2": "2 41887  34.9429  80.7346 0009154 129.9517 230.2010 15.47944929498960"
      },
      "geometry": {
        "type": "Point",
        "coordinates": [
          164.3767946173324,
          34.921259071020515
        ]
      }
    },
    {
      "type": "Feature",
      "properties": {
        "norad_id": 41888,
        "name": "CYGFM08",
        "group": "weather",
        "lat": 29.462960752918733,
        "lon": -175.81023097983888,
        "alt_km": 408.02971766572136,
        "timestamp": "2025-12-08T19:31:48.474606+00:00",
        "meta_object_name": "CYGFM08",
        "meta_object_id": "2016-078E",
        "meta_epoch": "2025-12-08T06:38:19.176576",
        "meta_mean_motion": 15.49152945,
        "meta_eccentricity": 0.00110495,
        "meta_inclination": 34.9461,
        "meta_ra_of_asc_node": 61.7039,
        "meta_arg_of_pericenter": 158.3176,
        "meta_mean_anomaly": 201.8015,
        "meta_ephemeris_type": 0,
        "meta_classification_type": "U",
        "meta_norad_cat_id": 41888,
        "meta_element_set_no": 999,
        "meta_rev_at_epoch": 49924,
        "meta_bstar": 0.00046317331,
        "meta_mean_motion_dot": 0.00026086,
        "meta_mean_motion_ddot": 0,
        "tle_line1": "1 41888U 16078E   25342.27661084  .00026086  00000+0  46317-3 0  9996",
        "tle_line2": "2 41888  34.9461  61.7039 0011049 158.3176 201.8015 15.49152945499240"
      },
      "geometry": {
        "type": "Point",
        "coordinates": [
          -175.81023097983888,
          29.462960752918733
        ]
      }
    }
  ]
}